#dP2021  4 25  0  0  0.00000000      97 __u+U IGS14 FIT  IAC
## 2155      0.00000000   900.00000000 59329 0.0000000000000
+  123   C01C02C03C04C05C06C07C08C09C10C11C12C13C14C16C19C20
+        C21C22C23C24C25C26C27C28C29C30C32C33C34C35C36C37C38
+        C39C40C41C42C43C44C45C46C60E01E02E03E04E05E07E08E09
+        E11E12E13E14E15E18E19E21E24E25E26E27E30E31E33E36G01
+        G02G03G04G05G06G07G08G09G10G12G13G14G15G16G17G18G19
+        G20G21G22G23G24G25G26G27G28G29G30G31G32J01J02J03J07
+        R01R02R03R04R05R07R08R09R11R12R13R14R15R16R17R18R19
+        R20R21R22R24  0  0  0  0  0  0  0  0  0  0  0  0  0
++         0  0  0  0  0  0  0  0  0  0  0  0  0  0  0  0  0
++         0  0  0  0  0  0  0  0  0  0  0  0  0  0  0  0  0
++         0  0  0  0  0  0  0  0  0  0  0  0  0  0  0  0  0
++         0  0  0  0  0  0  0  0  0  0  0  0  0  0  0  0  0
++         0  0  0  0  0  0  0  0  0  0  0  0  0  0  0  0  0
++         0  0  0  0  0  0  0  0  0  0  0  0  0  0  0  0  0
++         0  0  0  0  0  0  0  0  0  0  0  0  0  0  0  0  0
++         0  0  0  0  0  0  0  0  0  0  0  0  0  0  0  0  0
%c M  cc GPS ccc cccc cccc cccc cccc ccccc ccccc ccccc ccccc
%c cc cc ccc ccc cccc cccc cccc cccc ccccc ccccc ccccc ccccc
%f  1.2500000  1.025000000  0.00000000000  0.000000000000000
%f  0.0000000  0.000000000  0.00000000000  0.000000000000000
%i    0    0    0    0      0      0      0      0         0
%i    0    0    0    0      0      0      0      0         0
/* INFORMATION & ANALYSIS CENTER (IAC)            FINAL DATA
/* S/V CLOCKS ARE ALIGNED TO GNSS TIME                      
/* G:C1WC2W R:C1PC2P E:C1XC5X C:C2IC6I J:C1CC2S             
/* PCV:IGS14_2148 OL/AL:FES2004  NONE     YN ORB:CoN CLK:CoN
*  2021 04 25  2  0  0.00000000
PC01 -34324.986825  24518.476176    215.856234   -528.647328
PC02   4478.876437  41881.959518  -1181.184491    731.734582
PC03 -14726.193922  39488.883066  -1094.731052   -369.447580
PC04 -39607.663244  14476.107344     18.710570   -130.664061
PC05  21949.039557  35985.963043   -856.759384     93.598415
PC06 -19379.734976  37122.197974   -710.569750    313.875236
PC07  -9402.603637  27960.462036  30530.096273   -155.071880
PC08 -22615.567286  19415.510219 -29874.652057   -890.972847
PC09  -9935.864419  38325.028425  14144.183520    571.284428
PC10   4665.907720  35363.778514  23021.220267    -51.711945
PC11   7695.689590 -24391.251542  11178.185486    303.391477
PC12  18310.325716 -20043.404107  -6400.180338    912.455917
PC13  -7323.339442  22913.931595 -34556.832286    235.086003
PC14  -2896.972644 -24685.037808  12658.837933    556.836374
PC16 -17154.096873  38326.431858   2202.085246   -801.517391
PC19  10403.148370  25625.708204  -3775.397242    811.000703
PC20  -3512.729758  20742.008984 -18329.419221   -947.109563
PC21  16066.041169  -3098.510534  22632.515384   -948.271009
PC22  18677.328577  15857.535874  13398.160496   -963.341662
PC23 -24797.552423  -8330.582910  -9717.598815   -893.605957
PC24  13274.775681 -13802.274583 -20299.595659   -825.549275
PC25  -9369.807999 -15453.741238 -21274.317555   -927.210681
PC26  26185.901684  -5037.245015  -8175.734685    916.253522
PC27 -20321.243621  12495.831379  14441.355873    520.981134
PC28 -14685.597718  -6401.638365  22849.855526    -82.222387
PC29   1286.803600  21455.850673 -17802.718976    383.423119
PC30 -13433.233419  24371.574281  -1886.592018    462.869702
PC32 -16021.245852   3246.219539 -22593.820872   -943.041332
PC33 -10435.151666 -25574.886555   3904.849226   -942.106230
PC34  13076.892177 -24535.748290   2559.080412   -688.234932
PC35  14792.456267   6231.274070 -22837.319291   -311.273746
PC36   8585.176197  15735.337065  21409.757484   -729.448904
PC37 -26648.540123   3862.233703   7376.901927   -904.751498
PC38 -17480.776798  22756.708007 -30913.856571    144.474578
PC39 -12680.668207  39831.825382   4801.246590     30.597021
PC40   1123.080786  32786.998130  26577.334462    154.501975
PC41 -18662.297252 -16061.372835 -13081.591691   -946.876139
PC42   4187.591457 -20238.710152  18791.061876   -920.655581
PC43   -803.240418 -21802.977508  17406.270658   -700.802200
PC44  19996.430368 -12967.637502 -14557.607082    154.873675
PC45  24856.903484   8174.148435   9673.562942    422.821192
PC46 -12301.272234  14034.643961  20761.295244    300.775016
PC60   7309.285924  41528.844245   -369.775376 999999.999999
PE01   -112.092008 -18227.101783 -23325.954737  -1094.086066
PE02    224.503976  18260.864397  23286.271777    214.561350
PE03  -3213.645352  29076.097875  -4567.107694   -423.836338
PE04  -9457.814570 -24670.137258 -13332.989555   -757.211526
PE05 -14205.737123  16464.778083 -20075.537255   -286.134313
PE07  16804.759226   5616.332857  23724.427016   -529.793501
PE08   9691.921279  24417.501645  13660.326770   6012.404019
PE09 -16702.306009  -5313.832188 -23841.844990   5689.626243
PE11 -24518.224929   1970.545319  16442.997626   6057.257272
PE12  -9156.465614 -13387.659528  24760.699442   5242.949060
PE13  24317.027542  -1764.774612 -16790.187269    415.493875
PE14  14892.245558  17666.724724 -22954.537575  -1408.595769
PE15   9225.954547  13247.243445 -24804.724184    817.709470
PE18 -10970.013357 -12028.303341  16760.723118  -1541.271750
PE19   4687.320315 -28447.592364   6717.132100    260.681791
PE21  18384.551952  -6681.584532 -22218.804622   -661.233444
PE24 -26907.374514  -9865.770961   7439.021263   -865.225275
PE25 -18543.790369   6523.113932  22133.340104   -531.908826
PE26  24835.576954 -16002.217528   1865.296854   1885.685518
PE27  26924.662227   9165.797201  -8182.306255    -18.423602
PE30  18799.274166  19842.668104  11328.539256   2997.828860
PE31 -19588.993726 -19517.445271 -10562.066111   -480.499130
PE33  11281.501999 -20442.847275  18206.642884   -467.897508
PE36 -25058.947942  15702.542570  -1090.375775   -198.271829
PG01   -133.095118  15350.944864 -21882.543751    707.247109
PG02  21016.201141 -14694.310498   7657.013927   -598.652034
PG03   9006.846097  20762.400487 -14071.811933   -146.164787
PG04   -347.091302  25365.506002   7782.758957   -193.459185
PG05   6763.264805 -13979.484086  21380.127354    -40.051319
PG06  25621.018260  -5737.303957  -4168.672176      9.918570
PG07  14779.851776  10167.771310  20081.635799    132.131093
PG08  -5571.032031  25763.993588   1292.152194    -18.754256
PG09   8251.366300  19246.920905  16267.270096   -341.263108
PG10 -22357.630444  -9586.659404 -10857.223932   -108.850780
PG12  -5138.283135 -20762.699034 -16096.219844    -32.321285
PG13  13204.014622 -21420.083178   8158.444813    124.031112
PG14  21912.249991  10779.698668 -10488.432738     93.231080
PG15   2517.064177 -26229.615674    510.982280   -153.863426
PG16 -11214.675982   9704.690362  21793.695419   -314.956416
PG17  14231.553184   3052.888891 -21791.256524    431.891464
PG18 -17863.266381  -7492.388889  18191.616776    351.457661
PG19  16199.717321  -6095.554205 -20399.766014     -8.510354
PG20 -11630.982357 -19609.927868  13797.340543    522.836511
PG21  -8402.724499  17048.539177 -17634.821356    113.479391
PG22    566.590870  18017.708803 -19366.531291   -630.017904
PG23 -20675.672554 -16703.934192   -539.947097    111.469017
PG24   5028.685442 -17587.729607 -19371.203175     33.634350
PG25 -16610.822421 -20100.005320  -6027.537395    124.996045
PG26 -18401.474653   2916.090280  18969.972626     76.712505
PG27 -12171.625296  20083.161833  11864.638936   -118.730786
PG28  20769.707241   8673.625255 -13411.299072    581.560334
PG29  -6287.692238 -19440.662609  16896.945202   -335.877014
PG30  24183.348715   1124.689155  11245.160564   -417.430575
PG31 -25839.449385   7059.902259  -1350.706133   -113.550020
PG32 -15369.699456   -377.753496 -21537.281763     21.987384
PJ01 -20121.293547  24861.025238 -22897.007495   -369.865461
PJ02 -27178.890967  21582.738262  28839.611953      6.336875
PJ03 -33001.974746  25519.723668  11138.800840     -4.048257
PJ07 -25373.723500  33663.761383     26.863042     -0.020178
PR01  13054.653364   9296.658326  19857.995688     78.418804
PR02   6758.821745 -12579.018325  21197.755088    476.119506
PR03  -2785.485685 -23847.968151   8734.531161     34.789437
PR04 -10570.817940 -21589.916801  -8506.666286     83.895838
PR05 -12437.230913  -7369.950566 -21004.638114     70.562992
PR07   3170.026601  23979.923571  -7990.430606    -42.528747
PR08  10704.688674  21474.831424   8690.192647    -58.688603
PR09 -17028.001495   5374.532179  18198.194020    -10.382837
PR11  17837.780198  10957.478030  14590.812205     -0.496999
PR12  24950.841977   4419.610661  -2811.781270    223.604661
PR13  17532.042921  -4869.090087 -17895.345271    -53.887310
PR14   -760.736219 -11450.064994 -22771.605358     63.526204
PR15 -18015.945871 -11185.164277 -14161.399308    104.173025
PR16 -25069.583553  -3342.540241   3785.390820    -14.240910
PR17   9805.886531 -19228.669612  13573.427365    418.675117
PR18  -3807.650941 -10798.488839  22812.527433     74.303675
PR19 -15207.636484   2342.984027  20341.213756   -141.132091
PR20 -19149.121982  16299.514893   4129.119401    -47.934817
PR21  -9056.651120  18899.417705 -14558.467366   -204.192815
PR22   4734.752025   9871.239973 -23046.266996   -109.486128
PR24  18819.389779 -16885.111138  -3335.764026     40.155531
EOF
